{"distinct": [{"__class__": "tuple", "__value__": [{"Id": "50", "Name": "anup kumar", "Address": "ramjanki nagar", "Zip": "845549", "Phone": "7971854003"}, {"Id": "58", "Name": "anup kumar", "Address": "ramjanki nagar", "Zip": "674532", "Phone": "9898411395"}]}, {"__class__": "tuple", "__value__": [{"Id": "9", "Name": "pallavi prajapati", "Address": "hno - 554 po - arogya mandir near vishah vaibhav marriage house, gorakhpur", "Zip": "273003", "Phone": "8867534274"}, {"Id": "11", "Name": "pallavi prajapati", "Address": "hno - 553a ganga nagar, po - arogya mandir near vishah vaibhav marriage house, gorakhpur", "Zip": "273003", "Phone": "9838135837"}]}, {"__class__": "tuple", "__value__": [{"Id": "4", "Name": "pallavi", "Address": "fatima hospital road near dr. ramesh goel, post-arogya mandir", "Zip": "273003", "Phone": "9838146453"}, {"Id": "33", "Name": "pallavisingh", "Address": "khajanchi chauraha fatima hospital road near dr. ramesh goel, post-arogya mandir, gorakhpur", "Zip": "273003", "Phone": "9838145837"}]}, {"__class__": "tuple", "__value__": [{"Id": "4", "Name": "pallavi", "Address": "fatima hospital road near dr. ramesh goel, post-arogya mandir", "Zip": "273003", "Phone": "9838146453"}, {"Id": "26", "Name": "pallavi singh", "Address": "khajanchi chauraha fatima hospital road near dr. ramesh goel, post-arogya mandir, gorakhpur", "Zip": "273003", "Phone": "9838145837"}]}, {"__class__": "tuple", "__value__": [{"Id": "46", "Name": "chakrika anousha", "Address": "vijaywada", "Zip": "511079", "Phone": "7383811012"}, {"Id": "61", "Name": "chakrika", "Address": "vijaywada", "Zip": "878642", "Phone": "6798534211"}]}, {"__class__": "tuple", "__value__": [{"Id": "10", "Name": "aryan prajapati", "Address": "hno - 553a ganga nagar, po - arogya mandir near vishah vaibhav marriage house, gorakhpur", "Zip": "273003", "Phone": "8840219877"}, {"Id": "11", "Name": "pallavi prajapati", "Address": "hno - 553a ganga nagar, po - arogya mandir near vishah vaibhav marriage house, gorakhpur", "Zip": "273003", "Phone": "9838135837"}]}, {"__class__": "tuple", "__value__": [{"Id": "17", "Name": "aryanprajapati", "Address": "bala nagar, chandighar", "Zip": "445632", "Phone": "9989767543"}, {"Id": "18", "Name": "anup kumar", "Address": "bala nagar, chandighar", "Zip": "445632", "Phone": "8840345277"}]}, {"__class__": "tuple", "__value__": [{"Id": "4", "Name": "pallavi", "Address": "fatima hospital road near dr. ramesh goel, post-arogya mandir", "Zip": "273003", "Phone": "9838146453"}, {"Id": "32", "Name": "pallavi singh", "Address": "near dr. ramesh goel, post-arogya mandir,", "Zip": "273003", "Phone": "9838145837"}]}, {"__class__": "tuple", "__value__": [{"Id": "32", "Name": "pallavi singh", "Address": "near dr. ramesh goel, post-arogya mandir,", "Zip": "273003", "Phone": "9838145837"}, {"Id": "54", "Name": "pallavi singh", "Address": "hno - 554 po - arogya mandir near vishah vaibhav marriage house, gorakhpur", "Zip": "273003", "Phone": "9838235132"}]}, {"__class__": "tuple", "__value__": [{"Id": "28", "Name": "pallavi", "Address": "khajanchi chauraha, post-arogya mandir", "Zip": "273003", "Phone": "9838145837"}, {"Id": "54", "Name": "pallavi singh", "Address": "hno - 554 po - arogya mandir near vishah vaibhav marriage house, gorakhpur", "Zip": "273003", "Phone": "9838235132"}]}, {"__class__": "tuple", "__value__": [{"Id": "4", "Name": "pallavi", "Address": "fatima hospital road near dr. ramesh goel, post-arogya mandir", "Zip": "273003", "Phone": "9838146453"}, {"Id": "28", "Name": "pallavi", "Address": "khajanchi chauraha, post-arogya mandir", "Zip": "273003", "Phone": "9838145837"}]}, {"__class__": "tuple", "__value__": [{"Id": "9", "Name": "pallavi prajapati", "Address": "hno - 554 po - arogya mandir near vishah vaibhav marriage house, gorakhpur", "Zip": "273003", "Phone": "8867534274"}, {"Id": "28", "Name": "pallavi", "Address": "khajanchi chauraha, post-arogya mandir", "Zip": "273003", "Phone": "9838145837"}]}, {"__class__": "tuple", "__value__": [{"Id": "11", "Name": "pallavi prajapati", "Address": "hno - 553a ganga nagar, po - arogya mandir near vishah vaibhav marriage house, gorakhpur", "Zip": "273003", "Phone": "9838135837"}, {"Id": "54", "Name": "pallavi singh", "Address": "hno - 554 po - arogya mandir near vishah vaibhav marriage house, gorakhpur", "Zip": "273003", "Phone": "9838235132"}]}, {"__class__": "tuple", "__value__": [{"Id": "9", "Name": "pallavi prajapati", "Address": "hno - 554 po - arogya mandir near vishah vaibhav marriage house, gorakhpur", "Zip": "273003", "Phone": "8867534274"}, {"Id": "10", "Name": "aryan prajapati", "Address": "hno - 553a ganga nagar, po - arogya mandir near vishah vaibhav marriage house, gorakhpur", "Zip": "273003", "Phone": "8840219877"}]}, {"__class__": "tuple", "__value__": [{"Id": "26", "Name": "pallavi singh", "Address": "khajanchi chauraha fatima hospital road near dr. ramesh goel, post-arogya mandir, gorakhpur", "Zip": "273003", "Phone": "9838145837"}, {"Id": "54", "Name": "pallavi singh", "Address": "hno - 554 po - arogya mandir near vishah vaibhav marriage house, gorakhpur", "Zip": "273003", "Phone": "9838235132"}]}, {"__class__": "tuple", "__value__": [{"Id": "4", "Name": "pallavi", "Address": "fatima hospital road near dr. ramesh goel, post-arogya mandir", "Zip": "273003", "Phone": "9838146453"}, {"Id": "11", "Name": "pallavi prajapati", "Address": "hno - 553a ganga nagar, po - arogya mandir near vishah vaibhav marriage house, gorakhpur", "Zip": "273003", "Phone": "9838135837"}]}, {"__class__": "tuple", "__value__": [{"Id": "27", "Name": "pallavi s", "Address": "fatima hospital road near dr. ramesh goel, post-arogya mandir", "Zip": "273003", "Phone": "9838145837"}, {"Id": "54", "Name": "pallavi singh", "Address": "hno - 554 po - arogya mandir near vishah vaibhav marriage house, gorakhpur", "Zip": "273003", "Phone": "9838235132"}]}, {"__class__": "tuple", "__value__": [{"Id": "11", "Name": "pallavi prajapati", "Address": "hno - 553a ganga nagar, po - arogya mandir near vishah vaibhav marriage house, gorakhpur", "Zip": "273003", "Phone": "9838135837"}, {"Id": "30", "Name": "aryan", "Address": "ganga nagar, po - arogya mandir near vishah vaibhav marriage house", "Zip": "273003", "Phone": "8840219877"}]}, {"__class__": "tuple", "__value__": [{"Id": "11", "Name": "pallavi prajapati", "Address": "hno - 553a ganga nagar, po - arogya mandir near vishah vaibhav marriage house, gorakhpur", "Zip": "273003", "Phone": "9838135837"}, {"Id": "36", "Name": "aryan", "Address": "ganga nagar, gorakhpur", "Zip": "273003", "Phone": "8840219877"}]}, {"__class__": "tuple", "__value__": [{"Id": "4", "Name": "pallavi", "Address": "fatima hospital road near dr. ramesh goel, post-arogya mandir", "Zip": "273003", "Phone": "9838146453"}, {"Id": "54", "Name": "pallavi singh", "Address": "hno - 554 po - arogya mandir near vishah vaibhav marriage house, gorakhpur", "Zip": "273003", "Phone": "9838235132"}]}, {"__class__": "tuple", "__value__": [{"Id": "4", "Name": "pallavi", "Address": "fatima hospital road near dr. ramesh goel, post-arogya mandir", "Zip": "273003", "Phone": "9838146453"}, {"Id": "9", "Name": "pallavi prajapati", "Address": "hno - 554 po - arogya mandir near vishah vaibhav marriage house, gorakhpur", "Zip": "273003", "Phone": "8867534274"}]}, {"__class__": "tuple", "__value__": [{"Id": "30", "Name": "aryan", "Address": "ganga nagar, po - arogya mandir near vishah vaibhav marriage house", "Zip": "273003", "Phone": "8840219877"}, {"Id": "54", "Name": "pallavi singh", "Address": "hno - 554 po - arogya mandir near vishah vaibhav marriage house, gorakhpur", "Zip": "273003", "Phone": "9838235132"}]}, {"__class__": "tuple", "__value__": [{"Id": "33", "Name": "pallavisingh", "Address": "khajanchi chauraha fatima hospital road near dr. ramesh goel, post-arogya mandir, gorakhpur", "Zip": "273003", "Phone": "9838145837"}, {"Id": "54", "Name": "pallavi singh", "Address": "hno - 554 po - arogya mandir near vishah vaibhav marriage house, gorakhpur", "Zip": "273003", "Phone": "9838235132"}]}, {"__class__": "tuple", "__value__": [{"Id": "9", "Name": "pallavi prajapati", "Address": "hno - 554 po - arogya mandir near vishah vaibhav marriage house, gorakhpur", "Zip": "273003", "Phone": "8867534274"}, {"Id": "27", "Name": "pallavi s", "Address": "fatima hospital road near dr. ramesh goel, post-arogya mandir", "Zip": "273003", "Phone": "9838145837"}]}, {"__class__": "tuple", "__value__": [{"Id": "9", "Name": "pallavi prajapati", "Address": "hno - 554 po - arogya mandir near vishah vaibhav marriage house, gorakhpur", "Zip": "273003", "Phone": "8867534274"}, {"Id": "29", "Name": "aryan p", "Address": "po - arogya mandir, near vishah vaibhav marriage house", "Zip": "273003", "Phone": "8840219877"}]}, {"__class__": "tuple", "__value__": [{"Id": "26", "Name": "pallavi singh", "Address": "khajanchi chauraha fatima hospital road near dr. ramesh goel, post-arogya mandir, gorakhpur", "Zip": "273003", "Phone": "9838145837"}, {"Id": "36", "Name": "aryan", "Address": "ganga nagar, gorakhpur", "Zip": "273003", "Phone": "8840219877"}]}, {"__class__": "tuple", "__value__": [{"Id": "9", "Name": "pallavi prajapati", "Address": "hno - 554 po - arogya mandir near vishah vaibhav marriage house, gorakhpur", "Zip": "273003", "Phone": "8867534274"}, {"Id": "31", "Name": "aryan prajapati", "Address": "near vishah vaibhav marriage house", "Zip": "273003", "Phone": "8840219877"}]}, {"__class__": "tuple", "__value__": [{"Id": "33", "Name": "pallavisingh", "Address": "khajanchi chauraha fatima hospital road near dr. ramesh goel, post-arogya mandir, gorakhpur", "Zip": "273003", "Phone": "9838145837"}, {"Id": "36", "Name": "aryan", "Address": "ganga nagar, gorakhpur", "Zip": "273003", "Phone": "8840219877"}]}, {"__class__": "tuple", "__value__": [{"Id": "11", "Name": "pallavi prajapati", "Address": "hno - 553a ganga nagar, po - arogya mandir near vishah vaibhav marriage house, gorakhpur", "Zip": "273003", "Phone": "9838135837"}, {"Id": "31", "Name": "aryan prajapati", "Address": "near vishah vaibhav marriage house", "Zip": "273003", "Phone": "8840219877"}]}, {"__class__": "tuple", "__value__": [{"Id": "11", "Name": "pallavi prajapati", "Address": "hno - 553a ganga nagar, po - arogya mandir near vishah vaibhav marriage house, gorakhpur", "Zip": "273003", "Phone": "9838135837"}, {"Id": "29", "Name": "aryan p", "Address": "po - arogya mandir, near vishah vaibhav marriage house", "Zip": "273003", "Phone": "8840219877"}]}, {"__class__": "tuple", "__value__": [{"Id": "36", "Name": "aryan", "Address": "ganga nagar, gorakhpur", "Zip": "273003", "Phone": "8840219877"}, {"Id": "54", "Name": "pallavi singh", "Address": "hno - 554 po - arogya mandir near vishah vaibhav marriage house, gorakhpur", "Zip": "273003", "Phone": "9838235132"}]}, {"__class__": "tuple", "__value__": [{"Id": "9", "Name": "pallavi prajapati", "Address": "hno - 554 po - arogya mandir near vishah vaibhav marriage house, gorakhpur", "Zip": "273003", "Phone": "8867534274"}, {"Id": "32", "Name": "pallavi singh", "Address": "near dr. ramesh goel, post-arogya mandir,", "Zip": "273003", "Phone": "9838145837"}]}, {"__class__": "tuple", "__value__": [{"Id": "9", "Name": "pallavi prajapati", "Address": "hno - 554 po - arogya mandir near vishah vaibhav marriage house, gorakhpur", "Zip": "273003", "Phone": "8867534274"}, {"Id": "36", "Name": "aryan", "Address": "ganga nagar, gorakhpur", "Zip": "273003", "Phone": "8840219877"}]}, {"__class__": "tuple", "__value__": [{"Id": "11", "Name": "pallavi prajapati", "Address": "hno - 553a ganga nagar, po - arogya mandir near vishah vaibhav marriage house, gorakhpur", "Zip": "273003", "Phone": "9838135837"}, {"Id": "35", "Name": "aryan p", "Address": "ganga nagar, near vishah vaibhav marriage house", "Zip": "273003", "Phone": "8840219877"}]}, {"__class__": "tuple", "__value__": [{"Id": "9", "Name": "pallavi prajapati", "Address": "hno - 554 po - arogya mandir near vishah vaibhav marriage house, gorakhpur", "Zip": "273003", "Phone": "8867534274"}, {"Id": "35", "Name": "aryan p", "Address": "ganga nagar, near vishah vaibhav marriage house", "Zip": "273003", "Phone": "8840219877"}]}, {"__class__": "tuple", "__value__": [{"Id": "29", "Name": "aryan p", "Address": "po - arogya mandir, near vishah vaibhav marriage house", "Zip": "273003", "Phone": "8840219877"}, {"Id": "54", "Name": "pallavi singh", "Address": "hno - 554 po - arogya mandir near vishah vaibhav marriage house, gorakhpur", "Zip": "273003", "Phone": "9838235132"}]}, {"__class__": "tuple", "__value__": [{"Id": "30", "Name": "aryan", "Address": "ganga nagar, po - arogya mandir near vishah vaibhav marriage house", "Zip": "273003", "Phone": "8840219877"}, {"Id": "32", "Name": "pallavi singh", "Address": "near dr. ramesh goel, post-arogya mandir,", "Zip": "273003", "Phone": "9838145837"}]}, {"__class__": "tuple", "__value__": [{"Id": "9", "Name": "pallavi prajapati", "Address": "hno - 554 po - arogya mandir near vishah vaibhav marriage house, gorakhpur", "Zip": "273003", "Phone": "8867534274"}, {"Id": "26", "Name": "pallavi singh", "Address": "khajanchi chauraha fatima hospital road near dr. ramesh goel, post-arogya mandir, gorakhpur", "Zip": "273003", "Phone": "9838145837"}]}, {"__class__": "tuple", "__value__": [{"Id": "11", "Name": "pallavi prajapati", "Address": "hno - 553a ganga nagar, po - arogya mandir near vishah vaibhav marriage house, gorakhpur", "Zip": "273003", "Phone": "9838135837"}, {"Id": "26", "Name": "pallavi singh", "Address": "khajanchi chauraha fatima hospital road near dr. ramesh goel, post-arogya mandir, gorakhpur", "Zip": "273003", "Phone": "9838145837"}]}, {"__class__": "tuple", "__value__": [{"Id": "9", "Name": "pallavi prajapati", "Address": "hno - 554 po - arogya mandir near vishah vaibhav marriage house, gorakhpur", "Zip": "273003", "Phone": "8867534274"}, {"Id": "33", "Name": "pallavisingh", "Address": "khajanchi chauraha fatima hospital road near dr. ramesh goel, post-arogya mandir, gorakhpur", "Zip": "273003", "Phone": "9838145837"}]}, {"__class__": "tuple", "__value__": [{"Id": "32", "Name": "pallavi singh", "Address": "near dr. ramesh goel, post-arogya mandir,", "Zip": "273003", "Phone": "9838145837"}, {"Id": "36", "Name": "aryan", "Address": "ganga nagar, gorakhpur", "Zip": "273003", "Phone": "8840219877"}]}, {"__class__": "tuple", "__value__": [{"Id": "11", "Name": "pallavi prajapati", "Address": "hno - 553a ganga nagar, po - arogya mandir near vishah vaibhav marriage house, gorakhpur", "Zip": "273003", "Phone": "9838135837"}, {"Id": "33", "Name": "pallavisingh", "Address": "khajanchi chauraha fatima hospital road near dr. ramesh goel, post-arogya mandir, gorakhpur", "Zip": "273003", "Phone": "9838145837"}]}, {"__class__": "tuple", "__value__": [{"Id": "10", "Name": "aryan prajapati", "Address": "hno - 553a ganga nagar, po - arogya mandir near vishah vaibhav marriage house, gorakhpur", "Zip": "273003", "Phone": "8840219877"}, {"Id": "28", "Name": "pallavi", "Address": "khajanchi chauraha, post-arogya mandir", "Zip": "273003", "Phone": "9838145837"}]}, {"__class__": "tuple", "__value__": [{"Id": "35", "Name": "aryan p", "Address": "ganga nagar, near vishah vaibhav marriage house", "Zip": "273003", "Phone": "8840219877"}, {"Id": "54", "Name": "pallavi singh", "Address": "hno - 554 po - arogya mandir near vishah vaibhav marriage house, gorakhpur", "Zip": "273003", "Phone": "9838235132"}]}, {"__class__": "tuple", "__value__": [{"Id": "26", "Name": "pallavi singh", "Address": "khajanchi chauraha fatima hospital road near dr. ramesh goel, post-arogya mandir, gorakhpur", "Zip": "273003", "Phone": "9838145837"}, {"Id": "30", "Name": "aryan", "Address": "ganga nagar, po - arogya mandir near vishah vaibhav marriage house", "Zip": "273003", "Phone": "8840219877"}]}, {"__class__": "tuple", "__value__": [{"Id": "30", "Name": "aryan", "Address": "ganga nagar, po - arogya mandir near vishah vaibhav marriage house", "Zip": "273003", "Phone": "8840219877"}, {"Id": "33", "Name": "pallavisingh", "Address": "khajanchi chauraha fatima hospital road near dr. ramesh goel, post-arogya mandir, gorakhpur", "Zip": "273003", "Phone": "9838145837"}]}, {"__class__": "tuple", "__value__": [{"Id": "27", "Name": "pallavi s", "Address": "fatima hospital road near dr. ramesh goel, post-arogya mandir", "Zip": "273003", "Phone": "9838145837"}, {"Id": "36", "Name": "aryan", "Address": "ganga nagar, gorakhpur", "Zip": "273003", "Phone": "8840219877"}]}, {"__class__": "tuple", "__value__": [{"Id": "10", "Name": "aryan prajapati", "Address": "hno - 553a ganga nagar, po - arogya mandir near vishah vaibhav marriage house, gorakhpur", "Zip": "273003", "Phone": "8840219877"}, {"Id": "54", "Name": "pallavi singh", "Address": "hno - 554 po - arogya mandir near vishah vaibhav marriage house, gorakhpur", "Zip": "273003", "Phone": "9838235132"}]}, {"__class__": "tuple", "__value__": [{"Id": "4", "Name": "pallavi", "Address": "fatima hospital road near dr. ramesh goel, post-arogya mandir", "Zip": "273003", "Phone": "9838146453"}, {"Id": "31", "Name": "aryan prajapati", "Address": "near vishah vaibhav marriage house", "Zip": "273003", "Phone": "8840219877"}]}, {"__class__": "tuple", "__value__": [{"Id": "4", "Name": "pallavi", "Address": "fatima hospital road near dr. ramesh goel, post-arogya mandir", "Zip": "273003", "Phone": "9838146453"}, {"Id": "10", "Name": "aryan prajapati", "Address": "hno - 553a ganga nagar, po - arogya mandir near vishah vaibhav marriage house, gorakhpur", "Zip": "273003", "Phone": "8840219877"}]}, {"__class__": "tuple", "__value__": [{"Id": "26", "Name": "pallavi singh", "Address": "khajanchi chauraha fatima hospital road near dr. ramesh goel, post-arogya mandir, gorakhpur", "Zip": "273003", "Phone": "9838145837"}, {"Id": "35", "Name": "aryan p", "Address": "ganga nagar, near vishah vaibhav marriage house", "Zip": "273003", "Phone": "8840219877"}]}, {"__class__": "tuple", "__value__": [{"Id": "28", "Name": "pallavi", "Address": "khajanchi chauraha, post-arogya mandir", "Zip": "273003", "Phone": "9838145837"}, {"Id": "30", "Name": "aryan", "Address": "ganga nagar, po - arogya mandir near vishah vaibhav marriage house", "Zip": "273003", "Phone": "8840219877"}]}, {"__class__": "tuple", "__value__": [{"Id": "26", "Name": "pallavi singh", "Address": "khajanchi chauraha fatima hospital road near dr. ramesh goel, post-arogya mandir, gorakhpur", "Zip": "273003", "Phone": "9838145837"}, {"Id": "29", "Name": "aryan p", "Address": "po - arogya mandir, near vishah vaibhav marriage house", "Zip": "273003", "Phone": "8840219877"}]}, {"__class__": "tuple", "__value__": [{"Id": "4", "Name": "pallavi", "Address": "fatima hospital road near dr. ramesh goel, post-arogya mandir", "Zip": "273003", "Phone": "9838146453"}, {"Id": "36", "Name": "aryan", "Address": "ganga nagar, gorakhpur", "Zip": "273003", "Phone": "8840219877"}]}, {"__class__": "tuple", "__value__": [{"Id": "33", "Name": "pallavisingh", "Address": "khajanchi chauraha fatima hospital road near dr. ramesh goel, post-arogya mandir, gorakhpur", "Zip": "273003", "Phone": "9838145837"}, {"Id": "35", "Name": "aryan p", "Address": "ganga nagar, near vishah vaibhav marriage house", "Zip": "273003", "Phone": "8840219877"}]}, {"__class__": "tuple", "__value__": [{"Id": "29", "Name": "aryan p", "Address": "po - arogya mandir, near vishah vaibhav marriage house", "Zip": "273003", "Phone": "8840219877"}, {"Id": "33", "Name": "pallavisingh", "Address": "khajanchi chauraha fatima hospital road near dr. ramesh goel, post-arogya mandir, gorakhpur", "Zip": "273003", "Phone": "9838145837"}]}, {"__class__": "tuple", "__value__": [{"Id": "29", "Name": "aryan p", "Address": "po - arogya mandir, near vishah vaibhav marriage house", "Zip": "273003", "Phone": "8840219877"}, {"Id": "32", "Name": "pallavi singh", "Address": "near dr. ramesh goel, post-arogya mandir,", "Zip": "273003", "Phone": "9838145837"}]}, {"__class__": "tuple", "__value__": [{"Id": "28", "Name": "pallavi", "Address": "khajanchi chauraha, post-arogya mandir", "Zip": "273003", "Phone": "9838145837"}, {"Id": "31", "Name": "aryan prajapati", "Address": "near vishah vaibhav marriage house", "Zip": "273003", "Phone": "8840219877"}]}, {"__class__": "tuple", "__value__": [{"Id": "10", "Name": "aryan prajapati", "Address": "hno - 553a ganga nagar, po - arogya mandir near vishah vaibhav marriage house, gorakhpur", "Zip": "273003", "Phone": "8840219877"}, {"Id": "32", "Name": "pallavi singh", "Address": "near dr. ramesh goel, post-arogya mandir,", "Zip": "273003", "Phone": "9838145837"}]}, {"__class__": "tuple", "__value__": [{"Id": "31", "Name": "aryan prajapati", "Address": "near vishah vaibhav marriage house", "Zip": "273003", "Phone": "8840219877"}, {"Id": "54", "Name": "pallavi singh", "Address": "hno - 554 po - arogya mandir near vishah vaibhav marriage house, gorakhpur", "Zip": "273003", "Phone": "9838235132"}]}, {"__class__": "tuple", "__value__": [{"Id": "27", "Name": "pallavi s", "Address": "fatima hospital road near dr. ramesh goel, post-arogya mandir", "Zip": "273003", "Phone": "9838145837"}, {"Id": "31", "Name": "aryan prajapati", "Address": "near vishah vaibhav marriage house", "Zip": "273003", "Phone": "8840219877"}]}, {"__class__": "tuple", "__value__": [{"Id": "27", "Name": "pallavi s", "Address": "fatima hospital road near dr. ramesh goel, post-arogya mandir", "Zip": "273003", "Phone": "9838145837"}, {"Id": "30", "Name": "aryan", "Address": "ganga nagar, po - arogya mandir near vishah vaibhav marriage house", "Zip": "273003", "Phone": "8840219877"}]}, {"__class__": "tuple", "__value__": [{"Id": "32", "Name": "pallavi singh", "Address": "near dr. ramesh goel, post-arogya mandir,", "Zip": "273003", "Phone": "9838145837"}, {"Id": "35", "Name": "aryan p", "Address": "ganga nagar, near vishah vaibhav marriage house", "Zip": "273003", "Phone": "8840219877"}]}, {"__class__": "tuple", "__value__": [{"Id": "10", "Name": "aryan prajapati", "Address": "hno - 553a ganga nagar, po - arogya mandir near vishah vaibhav marriage house, gorakhpur", "Zip": "273003", "Phone": "8840219877"}, {"Id": "27", "Name": "pallavi s", "Address": "fatima hospital road near dr. ramesh goel, post-arogya mandir", "Zip": "273003", "Phone": "9838145837"}]}, {"__class__": "tuple", "__value__": [{"Id": "28", "Name": "pallavi", "Address": "khajanchi chauraha, post-arogya mandir", "Zip": "273003", "Phone": "9838145837"}, {"Id": "36", "Name": "aryan", "Address": "ganga nagar, gorakhpur", "Zip": "273003", "Phone": "8840219877"}]}, {"__class__": "tuple", "__value__": [{"Id": "31", "Name": "aryan prajapati", "Address": "near vishah vaibhav marriage house", "Zip": "273003", "Phone": "8840219877"}, {"Id": "33", "Name": "pallavisingh", "Address": "khajanchi chauraha fatima hospital road near dr. ramesh goel, post-arogya mandir, gorakhpur", "Zip": "273003", "Phone": "9838145837"}]}, {"__class__": "tuple", "__value__": [{"Id": "26", "Name": "pallavi singh", "Address": "khajanchi chauraha fatima hospital road near dr. ramesh goel, post-arogya mandir, gorakhpur", "Zip": "273003", "Phone": "9838145837"}, {"Id": "31", "Name": "aryan prajapati", "Address": "near vishah vaibhav marriage house", "Zip": "273003", "Phone": "8840219877"}]}, {"__class__": "tuple", "__value__": [{"Id": "4", "Name": "pallavi", "Address": "fatima hospital road near dr. ramesh goel, post-arogya mandir", "Zip": "273003", "Phone": "9838146453"}, {"Id": "30", "Name": "aryan", "Address": "ganga nagar, po - arogya mandir near vishah vaibhav marriage house", "Zip": "273003", "Phone": "8840219877"}]}, {"__class__": "tuple", "__value__": [{"Id": "27", "Name": "pallavi s", "Address": "fatima hospital road near dr. ramesh goel, post-arogya mandir", "Zip": "273003", "Phone": "9838145837"}, {"Id": "35", "Name": "aryan p", "Address": "ganga nagar, near vishah vaibhav marriage house", "Zip": "273003", "Phone": "8840219877"}]}, {"__class__": "tuple", "__value__": [{"Id": "27", "Name": "pallavi s", "Address": "fatima hospital road near dr. ramesh goel, post-arogya mandir", "Zip": "273003", "Phone": "9838145837"}, {"Id": "29", "Name": "aryan p", "Address": "po - arogya mandir, near vishah vaibhav marriage house", "Zip": "273003", "Phone": "8840219877"}]}, {"__class__": "tuple", "__value__": [{"Id": "10", "Name": "aryan prajapati", "Address": "hno - 553a ganga nagar, po - arogya mandir near vishah vaibhav marriage house, gorakhpur", "Zip": "273003", "Phone": "8840219877"}, {"Id": "33", "Name": "pallavisingh", "Address": "khajanchi chauraha fatima hospital road near dr. ramesh goel, post-arogya mandir, gorakhpur", "Zip": "273003", "Phone": "9838145837"}]}, {"__class__": "tuple", "__value__": [{"Id": "10", "Name": "aryan prajapati", "Address": "hno - 553a ganga nagar, po - arogya mandir near vishah vaibhav marriage house, gorakhpur", "Zip": "273003", "Phone": "8840219877"}, {"Id": "26", "Name": "pallavi singh", "Address": "khajanchi chauraha fatima hospital road near dr. ramesh goel, post-arogya mandir, gorakhpur", "Zip": "273003", "Phone": "9838145837"}]}, {"__class__": "tuple", "__value__": [{"Id": "31", "Name": "aryan prajapati", "Address": "near vishah vaibhav marriage house", "Zip": "273003", "Phone": "8840219877"}, {"Id": "32", "Name": "pallavi singh", "Address": "near dr. ramesh goel, post-arogya mandir,", "Zip": "273003", "Phone": "9838145837"}]}, {"__class__": "tuple", "__value__": [{"Id": "28", "Name": "pallavi", "Address": "khajanchi chauraha, post-arogya mandir", "Zip": "273003", "Phone": "9838145837"}, {"Id": "29", "Name": "aryan p", "Address": "po - arogya mandir, near vishah vaibhav marriage house", "Zip": "273003", "Phone": "8840219877"}]}, {"__class__": "tuple", "__value__": [{"Id": "4", "Name": "pallavi", "Address": "fatima hospital road near dr. ramesh goel, post-arogya mandir", "Zip": "273003", "Phone": "9838146453"}, {"Id": "35", "Name": "aryan p", "Address": "ganga nagar, near vishah vaibhav marriage house", "Zip": "273003", "Phone": "8840219877"}]}, {"__class__": "tuple", "__value__": [{"Id": "28", "Name": "pallavi", "Address": "khajanchi chauraha, post-arogya mandir", "Zip": "273003", "Phone": "9838145837"}, {"Id": "35", "Name": "aryan p", "Address": "ganga nagar, near vishah vaibhav marriage house", "Zip": "273003", "Phone": "8840219877"}]}, {"__class__": "tuple", "__value__": [{"Id": "4", "Name": "pallavi", "Address": "fatima hospital road near dr. ramesh goel, post-arogya mandir", "Zip": "273003", "Phone": "9838146453"}, {"Id": "29", "Name": "aryan p", "Address": "po - arogya mandir, near vishah vaibhav marriage house", "Zip": "273003", "Phone": "8840219877"}]}, {"__class__": "tuple", "__value__": [{"Id": "15", "Name": "chakrika anousha", "Address": "hydrabad", "Zip": "500097", "Phone": "8374741101"}, {"Id": "16", "Name": "chakrika anousha", "Address": "hno - 876 ramkumar colony, vijaywada, andra pradesh", "Zip": "511079", "Phone": "7383811012"}]}, {"__class__": "tuple", "__value__": [{"Id": "16", "Name": "chakrika anousha", "Address": "hno - 876 ramkumar colony, vijaywada, andra pradesh", "Zip": "511079", "Phone": "7383811012"}, {"Id": "47", "Name": "chakrika anousha", "Address": "hno - 334 amravati", "Zip": "711097", "Phone": "6388110127"}]}, {"__class__": "tuple", "__value__": [{"Id": "3", "Name": "chakrika anousha", "Address": "hno - 2-22-96/4, nmrata avenue, kukatpally, hydrabad", "Zip": "500097", "Phone": "8374741101"}, {"Id": "47", "Name": "chakrika anousha", "Address": "hno - 334 amravati", "Zip": "711097", "Phone": "6388110127"}]}, {"__class__": "tuple", "__value__": [{"Id": "3", "Name": "chakrika anousha", "Address": "hno - 2-22-96/4, nmrata avenue, kukatpally, hydrabad", "Zip": "500097", "Phone": "8374741101"}, {"Id": "46", "Name": "chakrika anousha", "Address": "vijaywada", "Zip": "511079", "Phone": "7383811012"}]}, {"__class__": "tuple", "__value__": [{"Id": "16", "Name": "chakrika anousha", "Address": "hno - 876 ramkumar colony, vijaywada, andra pradesh", "Zip": "511079", "Phone": "7383811012"}, {"Id": "61", "Name": "chakrika", "Address": "vijaywada", "Zip": "878642", "Phone": "6798534211"}]}, {"__class__": "tuple", "__value__": [{"Id": "49", "Name": "anupk", "Address": "ramjanki nagar , greenland area", "Zip": "845549", "Phone": "7971854003"}, {"Id": "58", "Name": "anup kumar", "Address": "ramjanki nagar", "Zip": "674532", "Phone": "9898411395"}]}, {"__class__": "tuple", "__value__": [{"Id": "1", "Name": "anup kumar", "Address": "hno - 0135 om colony, mirza toli, uttarwari bethah", "Zip": "845438", "Phone": "7970954003"}, {"Id": "58", "Name": "anup kumar", "Address": "ramjanki nagar", "Zip": "674532", "Phone": "9898411395"}]}, {"__class__": "tuple", "__value__": [{"Id": "1", "Name": "anup kumar", "Address": "hno - 0135 om colony, mirza toli, uttarwari bethah", "Zip": "845438", "Phone": "7970954003"}, {"Id": "50", "Name": "anup kumar", "Address": "ramjanki nagar", "Zip": "845549", "Phone": "7971854003"}]}, {"__class__": "tuple", "__value__": [{"Id": "1", "Name": "anup kumar", "Address": "hno - 0135 om colony, mirza toli, uttarwari bethah", "Zip": "845438", "Phone": "7970954003"}, {"Id": "25", "Name": "anup kumar", "Address": "pavitrata colony, maharashtra", "Zip": "884067", "Phone": "8770954113"}]}, {"__class__": "tuple", "__value__": [{"Id": "24", "Name": "anupk", "Address": "badshah nagar, woodland area", "Zip": "844092", "Phone": "7976544003"}, {"Id": "49", "Name": "anupk", "Address": "ramjanki nagar , greenland area", "Zip": "845549", "Phone": "7971854003"}]}, {"__class__": "tuple", "__value__": [{"Id": "38", "Name": "chakrika", "Address": "achen singh chauraha, hydrabad", "Zip": "667564", "Phone": "7788402198"}, {"Id": "61", "Name": "chakrika", "Address": "vijaywada", "Zip": "878642", "Phone": "6798534211"}]}, {"__class__": "tuple", "__value__": [{"Id": "23", "Name": "anupkumar", "Address": "badshah nagar, mumbai", "Zip": "844092", "Phone": "7976544003"}, {"Id": "48", "Name": "anupkumar", "Address": "hno-889a, ramjanki nagar , greenland area uttar pradesh", "Zip": "845549", "Phone": "7971854003"}]}, {"__class__": "tuple", "__value__": [{"Id": "36", "Name": "aryan", "Address": "ganga nagar, gorakhpur", "Zip": "273003", "Phone": "8840219877"}, {"Id": "55", "Name": "aryan", "Address": "chirauli bazar, mangarpur, gauribazar", "Zip": "276006", "Phone": "8840403093"}]}, {"__class__": "tuple", "__value__": [{"Id": "30", "Name": "aryan", "Address": "ganga nagar, po - arogya mandir near vishah vaibhav marriage house", "Zip": "273003", "Phone": "8840219877"}, {"Id": "55", "Name": "aryan", "Address": "chirauli bazar, mangarpur, gauribazar", "Zip": "276006", "Phone": "8840403093"}]}, {"__class__": "tuple", "__value__": [{"Id": "10", "Name": "aryan prajapati", "Address": "hno - 553a ganga nagar, po - arogya mandir near vishah vaibhav marriage house, gorakhpur", "Zip": "273003", "Phone": "8840219877"}, {"Id": "37", "Name": "aryan prajapati", "Address": "hno - 456, chirauli bazar, mangarpur, gauribazar, uttar pradesh", "Zip": "276006", "Phone": "8840403093"}]}, {"__class__": "tuple", "__value__": [{"Id": "15", "Name": "chakrika anousha", "Address": "hydrabad", "Zip": "500097", "Phone": "8374741101"}, {"Id": "47", "Name": "chakrika anousha", "Address": "hno - 334 amravati", "Zip": "711097", "Phone": "6388110127"}]}, {"__class__": "tuple", "__value__": [{"Id": "18", "Name": "anup kumar", "Address": "bala nagar, chandighar", "Zip": "445632", "Phone": "8840345277"}, {"Id": "58", "Name": "anup kumar", "Address": "ramjanki nagar", "Zip": "674532", "Phone": "9898411395"}]}, {"__class__": "tuple", "__value__": [{"Id": "18", "Name": "anup kumar", "Address": "bala nagar, chandighar", "Zip": "445632", "Phone": "8840345277"}, {"Id": "50", "Name": "anup kumar", "Address": "ramjanki nagar", "Zip": "845549", "Phone": "7971854003"}]}, {"__class__": "tuple", "__value__": [{"Id": "1", "Name": "anup kumar", "Address": "hno - 0135 om colony, mirza toli, uttarwari bethah", "Zip": "845438", "Phone": "7970954003"}, {"Id": "18", "Name": "anup kumar", "Address": "bala nagar, chandighar", "Zip": "445632", "Phone": "8840345277"}]}, {"__class__": "tuple", "__value__": [{"Id": "25", "Name": "anup kumar", "Address": "pavitrata colony, maharashtra", "Zip": "884067", "Phone": "8770954113"}, {"Id": "58", "Name": "anup kumar", "Address": "ramjanki nagar", "Zip": "674532", "Phone": "9898411395"}]}, {"__class__": "tuple", "__value__": [{"Id": "25", "Name": "anup kumar", "Address": "pavitrata colony, maharashtra", "Zip": "884067", "Phone": "8770954113"}, {"Id": "50", "Name": "anup kumar", "Address": "ramjanki nagar", "Zip": "845549", "Phone": "7971854003"}]}, {"__class__": "tuple", "__value__": [{"Id": "30", "Name": "aryan", "Address": "ganga nagar, po - arogya mandir near vishah vaibhav marriage house", "Zip": "273003", "Phone": "8840219877"}, {"Id": "51", "Name": "aryan", "Address": "hno - 989, manasthapur, khalilabad", "Zip": "364002", "Phone": "7740218977"}]}, {"__class__": "tuple", "__value__": [{"Id": "38", "Name": "chakrika", "Address": "achen singh chauraha, hydrabad", "Zip": "667564", "Phone": "7788402198"}, {"Id": "71", "Name": "chakrika", "Address": "nmrata avenue", "Zip": "500097", "Phone": "8374741101"}]}, {"__class__": "tuple", "__value__": [{"Id": "31", "Name": "aryan prajapati", "Address": "near vishah vaibhav marriage house", "Zip": "273003", "Phone": "8840219877"}, {"Id": "37", "Name": "aryan prajapati", "Address": "hno - 456, chirauli bazar, mangarpur, gauribazar, uttar pradesh", "Zip": "276006", "Phone": "8840403093"}]}, {"__class__": "tuple", "__value__": [{"Id": "36", "Name": "aryan", "Address": "ganga nagar, gorakhpur", "Zip": "273003", "Phone": "8840219877"}, {"Id": "51", "Name": "aryan", "Address": "hno - 989, manasthapur, khalilabad", "Zip": "364002", "Phone": "7740218977"}]}, {"__class__": "tuple", "__value__": [{"Id": "61", "Name": "chakrika", "Address": "vijaywada", "Zip": "878642", "Phone": "6798534211"}, {"Id": "62", "Name": "chakrika", "Address": "mb moters gorakhpur", "Zip": "543243", "Phone": "6798763412"}]}, {"__class__": "tuple", "__value__": [{"Id": "39", "Name": "aditi", "Address": "asuran chauraha, kali mandir", "Zip": "273114", "Phone": "8840402020"}, {"Id": "64", "Name": "aditi", "Address": "indraprasth colony", "Zip": "870016", "Phone": "8932250982"}]}, {"__class__": "tuple", "__value__": [{"Id": "18", "Name": "anup kumar", "Address": "bala nagar, chandighar", "Zip": "445632", "Phone": "8840345277"}, {"Id": "25", "Name": "anup kumar", "Address": "pavitrata colony, maharashtra", "Zip": "884067", "Phone": "8770954113"}]}, {"__class__": "tuple", "__value__": [{"Id": "51", "Name": "aryan", "Address": "hno - 989, manasthapur, khalilabad", "Zip": "364002", "Phone": "7740218977"}, {"Id": "55", "Name": "aryan", "Address": "chirauli bazar, mangarpur, gauribazar", "Zip": "276006", "Phone": "8840403093"}]}, {"__class__": "tuple", "__value__": [{"Id": "2", "Name": "anup k", "Address": "om colony, mirza toli", "Zip": "845438", "Phone": "7970954003"}, {"Id": "5", "Name": "anup k", "Address": "greenland area", "Zip": "845549", "Phone": "7971854003"}]}, {"__class__": "tuple", "__value__": [{"Id": "38", "Name": "chakrika", "Address": "achen singh chauraha, hydrabad", "Zip": "667564", "Phone": "7788402198"}, {"Id": "43", "Name": "chakrika", "Address": "ramkumar colony", "Zip": "511079", "Phone": "7383811012"}]}, {"__class__": "tuple", "__value__": [{"Id": "43", "Name": "chakrika", "Address": "ramkumar colony", "Zip": "511079", "Phone": "7383811012"}, {"Id": "61", "Name": "chakrika", "Address": "vijaywada", "Zip": "878642", "Phone": "6798534211"}]}, {"__class__": "tuple", "__value__": [{"Id": "46", "Name": "chakrika anousha", "Address": "vijaywada", "Zip": "511079", "Phone": "7383811012"}, {"Id": "47", "Name": "chakrika anousha", "Address": "hno - 334 amravati", "Zip": "711097", "Phone": "6388110127"}]}, {"__class__": "tuple", "__value__": [{"Id": "60", "Name": "aditi", "Address": "elloit road, building, 4th floor", "Zip": "700016", "Phone": "9432250294"}, {"Id": "64", "Name": "aditi", "Address": "indraprasth colony", "Zip": "870016", "Phone": "8932250982"}]}, {"__class__": "tuple", "__value__": [{"Id": "59", "Name": "aditi", "Address": "vijay gupta, building, 4th floor", "Zip": "700016", "Phone": "9432250294"}, {"Id": "64", "Name": "aditi", "Address": "indraprasth colony", "Zip": "870016", "Phone": "8932250982"}]}, {"__class__": "tuple", "__value__": [{"Id": "2", "Name": "anup k", "Address": "om colony, mirza toli", "Zip": "845438", "Phone": "7970954003"}, {"Id": "57", "Name": "anup k", "Address": "pavitrata colony", "Zip": "884067", "Phone": "8770954113"}]}, {"__class__": "tuple", "__value__": [{"Id": "15", "Name": "chakrika anousha", "Address": "hydrabad", "Zip": "500097", "Phone": "8374741101"}, {"Id": "46", "Name": "chakrika anousha", "Address": "vijaywada", "Zip": "511079", "Phone": "7383811012"}]}, {"__class__": "tuple", "__value__": [{"Id": "38", "Name": "chakrika", "Address": "achen singh chauraha, hydrabad", "Zip": "667564", "Phone": "7788402198"}, {"Id": "62", "Name": "chakrika", "Address": "mb moters gorakhpur", "Zip": "543243", "Phone": "6798763412"}]}, {"__class__": "tuple", "__value__": [{"Id": "3", "Name": "chakrika anousha", "Address": "hno - 2-22-96/4, nmrata avenue, kukatpally, hydrabad", "Zip": "500097", "Phone": "8374741101"}, {"Id": "16", "Name": "chakrika anousha", "Address": "hno - 876 ramkumar colony, vijaywada, andra pradesh", "Zip": "511079", "Phone": "7383811012"}]}, {"__class__": "tuple", "__value__": [{"Id": "61", "Name": "chakrika", "Address": "vijaywada", "Zip": "878642", "Phone": "6798534211"}, {"Id": "71", "Name": "chakrika", "Address": "nmrata avenue", "Zip": "500097", "Phone": "8374741101"}]}, {"__class__": "tuple", "__value__": [{"Id": "42", "Name": "chakrika a", "Address": "hno -876 ramkumar colony, vijaywada", "Zip": "511079", "Phone": "7383811012"}, {"Id": "65", "Name": "chakrika a", "Address": "nmrata avenue, kukatpally", "Zip": "500097", "Phone": "8374741101"}]}, {"__class__": "tuple", "__value__": [{"Id": "5", "Name": "anup k", "Address": "greenland area", "Zip": "845549", "Phone": "7971854003"}, {"Id": "69", "Name": "anup k", "Address": "transport nagar", "Zip": "989809", "Phone": "6309465651"}]}, {"__class__": "tuple", "__value__": [{"Id": "2", "Name": "anup k", "Address": "om colony, mirza toli", "Zip": "845438", "Phone": "7970954003"}, {"Id": "69", "Name": "anup k", "Address": "transport nagar", "Zip": "989809", "Phone": "6309465651"}]}, {"__class__": "tuple", "__value__": [{"Id": "5", "Name": "anup k", "Address": "greenland area", "Zip": "845549", "Phone": "7971854003"}, {"Id": "57", "Name": "anup k", "Address": "pavitrata colony", "Zip": "884067", "Phone": "8770954113"}]}, {"__class__": "tuple", "__value__": [{"Id": "5", "Name": "anup k", "Address": "greenland area", "Zip": "845549", "Phone": "7971854003"}, {"Id": "70", "Name": "anup k", "Address": "uttarwari bethah", "Zip": "845438", "Phone": "7970954003"}]}, {"__class__": "tuple", "__value__": [{"Id": "43", "Name": "chakrika", "Address": "ramkumar colony", "Zip": "511079", "Phone": "7383811012"}, {"Id": "62", "Name": "chakrika", "Address": "mb moters gorakhpur", "Zip": "543243", "Phone": "6798763412"}]}, {"__class__": "tuple", "__value__": [{"Id": "62", "Name": "chakrika", "Address": "mb moters gorakhpur", "Zip": "543243", "Phone": "6798763412"}, {"Id": "71", "Name": "chakrika", "Address": "nmrata avenue", "Zip": "500097", "Phone": "8374741101"}]}, {"__class__": "tuple", "__value__": [{"Id": "69", "Name": "anup k", "Address": "transport nagar", "Zip": "989809", "Phone": "6309465651"}, {"Id": "70", "Name": "anup k", "Address": "uttarwari bethah", "Zip": "845438", "Phone": "7970954003"}]}, {"__class__": "tuple", "__value__": [{"Id": "39", "Name": "aditi", "Address": "asuran chauraha, kali mandir", "Zip": "273114", "Phone": "8840402020"}, {"Id": "60", "Name": "aditi", "Address": "elloit road, building, 4th floor", "Zip": "700016", "Phone": "9432250294"}]}, {"__class__": "tuple", "__value__": [{"Id": "39", "Name": "aditi", "Address": "asuran chauraha, kali mandir", "Zip": "273114", "Phone": "8840402020"}, {"Id": "59", "Name": "aditi", "Address": "vijay gupta, building, 4th floor", "Zip": "700016", "Phone": "9432250294"}]}, {"__class__": "tuple", "__value__": [{"Id": "57", "Name": "anup k", "Address": "pavitrata colony", "Zip": "884067", "Phone": "8770954113"}, {"Id": "70", "Name": "anup k", "Address": "uttarwari bethah", "Zip": "845438", "Phone": "7970954003"}]}], "match": [{"__class__": "tuple", "__value__": [{"Id": "65", "Name": "chakrika a", "Address": "nmrata avenue, kukatpally", "Zip": "500097", "Phone": "8374741101"}, {"Id": "71", "Name": "chakrika", "Address": "nmrata avenue", "Zip": "500097", "Phone": "8374741101"}]}, {"__class__": "tuple", "__value__": [{"Id": "63", "Name": "aditis", "Address": "indraprasth colony, building 10th floor", "Zip": "870016", "Phone": "8932250982"}, {"Id": "64", "Name": "aditi", "Address": "indraprasth colony", "Zip": "870016", "Phone": "8932250982"}]}, {"__class__": "tuple", "__value__": [{"Id": "10", "Name": "aryan prajapati", "Address": "hno - 553a ganga nagar, po - arogya mandir near vishah vaibhav marriage house, gorakhpur", "Zip": "273003", "Phone": "8840219877"}, {"Id": "30", "Name": "aryan", "Address": "ganga nagar, po - arogya mandir near vishah vaibhav marriage house", "Zip": "273003", "Phone": "8840219877"}]}, {"__class__": "tuple", "__value__": [{"Id": "44", "Name": "aditi shaw", "Address": "110/h/14, elloit road, vijay gupta, building, 4th floor, kolkata", "Zip": "700016", "Phone": "9432250294"}, {"Id": "45", "Name": "aditi s", "Address": "elloit road, vijay gupta, building, 4th floor", "Zip": "700016", "Phone": "9432250294"}]}, {"__class__": "tuple", "__value__": [{"Id": "13", "Name": "aditishaw", "Address": "hno - 240 indraprasth colony, building 10th floor, gujrat", "Zip": "870016", "Phone": "8932250982"}, {"Id": "63", "Name": "aditis", "Address": "indraprasth colony, building 10th floor", "Zip": "870016", "Phone": "8932250982"}]}, {"__class__": "tuple", "__value__": [{"Id": "3", "Name": "chakrika anousha", "Address": "hno - 2-22-96/4, nmrata avenue, kukatpally, hydrabad", "Zip": "500097", "Phone": "8374741101"}, {"Id": "15", "Name": "chakrika anousha", "Address": "hydrabad", "Zip": "500097", "Phone": "8374741101"}]}, {"__class__": "tuple", "__value__": [{"Id": "29", "Name": "aryan p", "Address": "po - arogya mandir, near vishah vaibhav marriage house", "Zip": "273003", "Phone": "8840219877"}, {"Id": "30", "Name": "aryan", "Address": "ganga nagar, po - arogya mandir near vishah vaibhav marriage house", "Zip": "273003", "Phone": "8840219877"}]}, {"__class__": "tuple", "__value__": [{"Id": "4", "Name": "pallavi", "Address": "fatima hospital road near dr. ramesh goel, post-arogya mandir", "Zip": "273003", "Phone": "9838146453"}, {"Id": "27", "Name": "pallavi s", "Address": "fatima hospital road near dr. ramesh goel, post-arogya mandir", "Zip": "273003", "Phone": "9838145837"}]}, {"__class__": "tuple", "__value__": [{"Id": "70", "Name": "anup k", "Address": "uttarwari bethah", "Zip": "845438", "Phone": "7970954003"}, {"Id": "73", "Name": "anup", "Address": "mirza toli", "Zip": "845438", "Phone": "7970954003"}]}, {"__class__": "tuple", "__value__": [{"Id": "9", "Name": "pallavi prajapati", "Address": "hno - 554 po - arogya mandir near vishah vaibhav marriage house, gorakhpur", "Zip": "273003", "Phone": "8867534274"}, {"Id": "54", "Name": "pallavi singh", "Address": "hno - 554 po - arogya mandir near vishah vaibhav marriage house, gorakhpur", "Zip": "273003", "Phone": "9838235132"}]}, {"__class__": "tuple", "__value__": [{"Id": "11", "Name": "pallavi prajapati", "Address": "hno - 553a ganga nagar, po - arogya mandir near vishah vaibhav marriage house, gorakhpur", "Zip": "273003", "Phone": "9838135837"}, {"Id": "28", "Name": "pallavi", "Address": "khajanchi chauraha, post-arogya mandir", "Zip": "273003", "Phone": "9838145837"}]}, {"__class__": "tuple", "__value__": [{"Id": "5", "Name": "anup k", "Address": "greenland area", "Zip": "845549", "Phone": "7971854003"}, {"Id": "50", "Name": "anup kumar", "Address": "ramjanki nagar", "Zip": "845549", "Phone": "7971854003"}]}, {"__class__": "tuple", "__value__": [{"Id": "11", "Name": "pallavi prajapati", "Address": "hno - 553a ganga nagar, po - arogya mandir near vishah vaibhav marriage house, gorakhpur", "Zip": "273003", "Phone": "9838135837"}, {"Id": "27", "Name": "pallavi s", "Address": "fatima hospital road near dr. ramesh goel, post-arogya mandir", "Zip": "273003", "Phone": "9838145837"}]}, {"__class__": "tuple", "__value__": [{"Id": "11", "Name": "pallavi prajapati", "Address": "hno - 553a ganga nagar, po - arogya mandir near vishah vaibhav marriage house, gorakhpur", "Zip": "273003", "Phone": "9838135837"}, {"Id": "32", "Name": "pallavi singh", "Address": "near dr. ramesh goel, post-arogya mandir,", "Zip": "273003", "Phone": "9838145837"}]}, {"__class__": "tuple", "__value__": [{"Id": "9", "Name": "pallavi prajapati", "Address": "hno - 554 po - arogya mandir near vishah vaibhav marriage house, gorakhpur", "Zip": "273003", "Phone": "8867534274"}, {"Id": "30", "Name": "aryan", "Address": "ganga nagar, po - arogya mandir near vishah vaibhav marriage house", "Zip": "273003", "Phone": "8840219877"}]}, {"__class__": "tuple", "__value__": [{"Id": "2", "Name": "anup k", "Address": "om colony, mirza toli", "Zip": "845438", "Phone": "7970954003"}, {"Id": "70", "Name": "anup k", "Address": "uttarwari bethah", "Zip": "845438", "Phone": "7970954003"}]}, {"__class__": "tuple", "__value__": [{"Id": "5", "Name": "anup k", "Address": "greenland area", "Zip": "845549", "Phone": "7971854003"}, {"Id": "48", "Name": "anupkumar", "Address": "hno-889a, ramjanki nagar , greenland area uttar pradesh", "Zip": "845549", "Phone": "7971854003"}]}, {"__class__": "tuple", "__value__": [{"Id": "5", "Name": "anup k", "Address": "greenland area", "Zip": "845549", "Phone": "7971854003"}, {"Id": "49", "Name": "anupk", "Address": "ramjanki nagar , greenland area", "Zip": "845549", "Phone": "7971854003"}]}, {"__class__": "tuple", "__value__": [{"Id": "31", "Name": "aryan prajapati", "Address": "near vishah vaibhav marriage house", "Zip": "273003", "Phone": "8840219877"}, {"Id": "36", "Name": "aryan", "Address": "ganga nagar, gorakhpur", "Zip": "273003", "Phone": "8840219877"}]}, {"__class__": "tuple", "__value__": [{"Id": "15", "Name": "chakrika anousha", "Address": "hydrabad", "Zip": "500097", "Phone": "8374741101"}, {"Id": "71", "Name": "chakrika", "Address": "nmrata avenue", "Zip": "500097", "Phone": "8374741101"}]}, {"__class__": "tuple", "__value__": [{"Id": "43", "Name": "chakrika", "Address": "ramkumar colony", "Zip": "511079", "Phone": "7383811012"}, {"Id": "46", "Name": "chakrika anousha", "Address": "vijaywada", "Zip": "511079", "Phone": "7383811012"}]}, {"__class__": "tuple", "__value__": [{"Id": "32", "Name": "pallavi singh", "Address": "near dr. ramesh goel, post-arogya mandir,", "Zip": "273003", "Phone": "9838145837"}, {"Id": "33", "Name": "pallavisingh", "Address": "khajanchi chauraha fatima hospital road near dr. ramesh goel, post-arogya mandir, gorakhpur", "Zip": "273003", "Phone": "9838145837"}]}, {"__class__": "tuple", "__value__": [{"Id": "27", "Name": "pallavi s", "Address": "fatima hospital road near dr. ramesh goel, post-arogya mandir", "Zip": "273003", "Phone": "9838145837"}, {"Id": "33", "Name": "pallavisingh", "Address": "khajanchi chauraha fatima hospital road near dr. ramesh goel, post-arogya mandir, gorakhpur", "Zip": "273003", "Phone": "9838145837"}]}, {"__class__": "tuple", "__value__": [{"Id": "48", "Name": "anupkumar", "Address": "hno-889a, ramjanki nagar , greenland area uttar pradesh", "Zip": "845549", "Phone": "7971854003"}, {"Id": "50", "Name": "anup kumar", "Address": "ramjanki nagar", "Zip": "845549", "Phone": "7971854003"}]}, {"__class__": "tuple", "__value__": [{"Id": "27", "Name": "pallavi s", "Address": "fatima hospital road near dr. ramesh goel, post-arogya mandir", "Zip": "273003", "Phone": "9838145837"}, {"Id": "28", "Name": "pallavi", "Address": "khajanchi chauraha, post-arogya mandir", "Zip": "273003", "Phone": "9838145837"}]}, {"__class__": "tuple", "__value__": [{"Id": "29", "Name": "aryan p", "Address": "po - arogya mandir, near vishah vaibhav marriage house", "Zip": "273003", "Phone": "8840219877"}, {"Id": "36", "Name": "aryan", "Address": "ganga nagar, gorakhpur", "Zip": "273003", "Phone": "8840219877"}]}, {"__class__": "tuple", "__value__": [{"Id": "2", "Name": "anup k", "Address": "om colony, mirza toli", "Zip": "845438", "Phone": "7970954003"}, {"Id": "73", "Name": "anup", "Address": "mirza toli", "Zip": "845438", "Phone": "7970954003"}]}, {"__class__": "tuple", "__value__": [{"Id": "6", "Name": "anup", "Address": "hno - 3510, badshah nagar, woodland area, mumbai", "Zip": "844092", "Phone": "7976544003"}, {"Id": "73", "Name": "anup", "Address": "mirza toli", "Zip": "845438", "Phone": "7970954003"}]}]}