{"distinct": [{"__class__": "tuple", "__value__": [{"Name": "abhay", "Address": "om colony", "Zip": "845438.0"}, {"Name": "anup kumar", "Address": "om colonu uttarwari pokhra", "Zip": null}]}, {"__class__": "tuple", "__value__": [{"Name": "anup kumar", "Address": "om colonu uttarwari pokhra", "Zip": null}, {"Name": "anup kumar", "Address": "uttarwari pokhra", "Zip": "84543.0"}]}, {"__class__": "tuple", "__value__": [{"Name": "abhay", "Address": "om colony", "Zip": "845438.0"}, {"Name": "anup kumar", "Address": "uttarwari pokhra", "Zip": "84543.0"}]}, {"__class__": "tuple", "__value__": [{"Name": "anup kumar", "Address": "om colony mirza", "Zip": "845438.0"}, {"Name": "abhay kumar", "Address": "om colony", "Zip": null}]}], "match": [{"__class__": "tuple", "__value__": [{"Name": "abhay", "Address": "om colony", "Zip": "845438.0"}, {"Name": "abhay kumar", "Address": "om colony", "Zip": null}]}, {"__class__": "tuple", "__value__": [{"Name": "anup kumar", "Address": "om colony", "Zip": "845438.0"}, {"Name": "anup kumar", "Address": "om colonu uttarwari pokhra", "Zip": null}]}, {"__class__": "tuple", "__value__": [{"Name": "anup kumar", "Address": "", "Zip": "845435.0"}, {"Name": "abhay kumar", "Address": "om colony", "Zip": null}]}, {"__class__": "tuple", "__value__": [{"Name": "abhay", "Address": "om colony", "Zip": "845438.0"}, {"Name": "anup kumar", "Address": "", "Zip": "845435.0"}]}, {"__class__": "tuple", "__value__": [{"Name": "anup kumar", "Address": "om colonu uttarwari pokhra", "Zip": null}, {"Name": "abhay kumar", "Address": "om colony", "Zip": null}]}, {"__class__": "tuple", "__value__": [{"Name": "abhay", "Address": "om colony", "Zip": "845438.0"}, {"Name": "anup kumar", "Address": "om colony mirza", "Zip": "845438.0"}]}, {"__class__": "tuple", "__value__": [{"Name": "anup kumar", "Address": "om colony", "Zip": "845438.0"}, {"Name": "abhay kumar", "Address": "om colony", "Zip": null}]}, {"__class__": "tuple", "__value__": [{"Name": "anup kumar", "Address": "om colony", "Zip": "845438.0"}, {"Name": "abhay", "Address": "om colony", "Zip": "845438.0"}]}, {"__class__": "tuple", "__value__": [{"Name": "anup kumar", "Address": "uttarwari pokhra", "Zip": "84543.0"}, {"Name": "abhay kumar", "Address": "om colony", "Zip": null}]}, {"__class__": "tuple", "__value__": [{"Name": "anup kumar", "Address": "om colony", "Zip": "845438.0"}, {"Name": "anup kumar", "Address": "om colony mirza", "Zip": "845438.0"}]}, {"__class__": "tuple", "__value__": [{"Name": "anup kumar", "Address": "om colony", "Zip": "845438.0"}, {"Name": "anup kumar", "Address": "uttarwari pokhra", "Zip": "84543.0"}]}, {"__class__": "tuple", "__value__": [{"Name": "anup kumar", "Address": "om colony mirza", "Zip": "845438.0"}, {"Name": "anup kumar", "Address": "uttarwari pokhra", "Zip": "84543.0"}]}]}