Id,Name,Address,Zip,Phone
1,Anup Kumar,"Hno – 0135 Om Colony, Mirza Toli, Uttarwari Bethah",845438,7970954003
2,Anup K,"Om Colony, Mirza Toli",845438,7970954003
3,Chakrika Anousha,"Hno – 2-22-96/4, Nmrata Avenue, kukatpally, Hydrabad",500097,8374741101
4,pallavi,"fatima hospital road near Dr. Ramesh goel, Post-arogya mandir",273003,9838146453
5,anup k,Greenland area,845549,7971854003
6,Anup,"Hno – 3510, Badshah Nagar, Woodland area, Mumbai",844092,7976544003
7,Preetham,"Pedapulipaka Main Road, Yanamalakuduru, Ramalingeswara Nagar, Vijayawada, Andhra Pradesh 520007",956341,8303759462
8,Anshika,SALARPUR POST-RASHOOLGARH VARANASI Varanasi Uttar Pradesh,545432,8125455776
9,Pallavi Prajapati,"Hno – 554 PO – Arogya Mandir Near vishah Vaibhav Marriage house, Gorakhpur",273003,8867534274
10,Aryan Prajapati,"Hno – 553A Ganga Nagar, PO – Arogya Mandir Near vishah Vaibhav Marriage house, Gorakhpur",273003,8840219877
11,pallavi prajapati,"Hno – 553A Ganga Nagar, PO – Arogya Mandir Near vishah Vaibhav Marriage house, Gorakhpur",273003,9838135837
12,aryanp,"Badshah Nagar, Khalilabad",223234,6640213456
13,AditiShaw,"Hno - 240 Indraprasth colony, Building 10th Floor, Gujrat",870016,8932250982
14,Neha,"Lok Kalyan Marg, formerly 7, Race Course Road",200061,9335345044
15,Chakrika Anousha,Hydrabad,500097,8374741101
16,chakrika anousha,"Hno – 876 Ramkumar colony, vijaywada, Andra Pradesh",511079,7383811012
17,aryanprajapati,"Bala Nagar, chandighar",445632,9989767543
18,anup kumar,"Bala Nagar, chandighar",445632,8840345277
19,Aditi Pathak,"Hno – 554, Asuran Churaha, vitap colony, Singapur",273013,7524080880
20,Aditi P,"Asuran Churaha, vitap colony",273013,7524080880
21,Trisha,"Mumbai, Maharashtra, India",700004,9441307779
22,pallavi srivastava,"ganga Nagar, nagpur",767563,9575386282
23,anupkumar,"Badshah Nagar, Mumbai",844092,7976544003
24,anupk,"Badshah Nagar, Woodland area",844092,7976544003
25,Anup kumar,"Pavitrata Colony, maharashtra",884067,8770954113
26,Pallavi Singh,"Khajanchi chauraha fatima hospital road near Dr. Ramesh goel, Post-arogya mandir, Gorakhpur",273003,9838145837
27,Pallavi S,"fatima hospital road near Dr. Ramesh goel, Post-arogya mandir",273003,9838145837
28,Pallavi,"Khajanchi chauraha, Post-arogya mandir",273003,9838145837
29,Aryan P,"PO – Arogya Mandir, Near vishah Vaibhav Marriage house",273003,8840219877
30,Aryan,"Ganga Nagar, PO – Arogya Mandir Near vishah Vaibhav Marriage house",273003,8840219877
31,aryan prajapati,Near vishah Vaibhav Marriage house,273003,8840219877
32,pallavi singh,"near Dr. Ramesh goel, Post-arogya mandir,",273003,9838145837
33,pallavisingh,"Khajanchi chauraha fatima hospital road near Dr. Ramesh goel, Post-arogya mandir, Gorakhpur",273003,9838145837
34,Aarushi,"Harijanawada, 5-21, Thotlavalluru, Andhra Pradesh",200071,9002476328
35,aryan p,"Ganga Nagar, Near vishah Vaibhav Marriage house",273003,8840219877
36,aryan,"Ganga Nagar, Gorakhpur",273003,8840219877
37,Aryan Prajapati,"Hno – 456, chirauli bazar, mangarpur, gauribazar, Uttar Pradesh",276006,8840403093
38,chakrika,"Achen singh chauraha, hydrabad",667564,7788402198
39,aditi,"asuran chauraha, kali mandir",273114,8840402020
40,Mehul,"B-09, G-10, Ground Floor, Mourya House, Next to VIP Plaza",853421,8920229784
41,Rahul Chaturvadi,"shabitali chauraha, vidyamandi, gorakhpur",986754,9455963751
42,chakrika a,"Hno –876 Ramkumar colony, vijaywada",511079,7383811012
43,chakrika,Ramkumar colony,511079,7383811012
44,Aditi Shaw,"110/H/14, Elloit Road, Vijay Gupta, Building, 4th Floor, Kolkata",700016,9432250294
45,Aditi S,"Elloit Road, Vijay Gupta, Building, 4th Floor",700016,9432250294
46,chakrika anousha,vijaywada,511079,7383811012
47,chakrika anousha,Hno – 334 Amravati,711097,6388110127
48,AnupKumar,"Hno-889A, Ramjanki Nagar , Greenland area Uttar Pradesh",845549,7971854003
49,AnupK,"Ramjanki Nagar , Greenland area",845549,7971854003
50,anup kumar,Ramjanki Nagar,845549,7971854003
51,Aditi Srivastava,"Hno – 667, Achen singh chauraha, Tamil Nadu",273235,8858709096
52,Aditi S,Achen singh chauraha,273235,8858709096
53,aryanprajapati,"mangarpur, gauribazar",276006,8840403093
54,aryanp,"mangarpur, Uttar Pradesh",276006,8840403093
51,aryan,"Hno – 989, manasthapur, Khalilabad",364002,7740218977
52,Kathik,"Galaxy Apartments, BJ Road Band Stand, Bandra West, Mumbai, Maharashtra",767678,8789921600
53,Karthika,"Mannat, Land's End, Bandstand, Bandra (West), Mumbai, Maharashtra",255531,9404262734
54,pallavi singh,"Hno – 554 PO – Arogya Mandir Near vishah Vaibhav Marriage house, Gorakhpur",273003,9838235132
55,aryan,"chirauli bazar, mangarpur, gauribazar",276006,8840403093
56,Rahul singh,"karamchandra park, babul ali, gorakhpur",908741,9007867378
57,Anup k,Pavitrata Colony,884067,8770954113
58,anup Kumar,Ramjanki Nagar,674532,9898411395
59,Aditi,"Vijay Gupta, Building, 4th Floor",700016,9432250294
60,aditi,"Elloit Road, Building, 4th Floor",700016,9432250294
61,Chakrika,vijaywada,878642,6798534211
62,Chakrika,MB Moters Gorakhpur,543243,6798763412
63,AditiS,"Indraprasth colony, Building 10th Floor",870016,8932250982
64,aditi,Indraprasth colony,870016,8932250982
65,Chakrika A,"Nmrata Avenue, kukatpally",500097,8374741101
66,aditi Panday,"Karim Nagar, Goa",657483,9585382926
67,Vrushti,No.982/948 B.R Hills Road Chamrajanagar Chamrajnagar,344454,7355481249
68,Varnika,"No:48, 1st floor, 1st cross street 2nd Main Road",101012,9740634982
69,anup K,Transport nagar,989809,6309465651
70,Anup K,Uttarwari Bethah,845438,7970954003
71,Chakrika,Nmrata Avenue,500097,8374741101
72,Iahika,"PODDAR POINT113, PARK STREET, BLOCK-A, 1ST FLOOR, Kolkata",266532,9026212539
73,anup,Mirza Toli,845438,7970954003
74,Subhangi,Station Road Ichalkaranji Kolhapur,954093,7702525379
